{"type": "FeatureCollection", "features": [ {"type": "Feature", "properties": {"norad_id": 35759, "name": "COSMOS 2251 DEB", "group": "cosmos-2251-debris", "lat": -19.264637737104398, "lon": -145.04498928583513, "alt_km": 627.9632417948205, "timestamp": "2025-12-10T07:43:55.175833+00:00", "meta": {"OBJECT_NAME": "COSMOS 2251 DEB", "OBJECT_ID": "1993-036ARD", "EPOCH": "2025-12-09T08:52:32.162880", "MEAN_MOTION": 14.64874402, "ECCENTRICITY": 0.00769193, "INCLINATION": 74.0373, "RA_OF_ASC_NODE": 222.5271, "ARG_OF_PERICENTER": 341.4527, "MEAN_ANOMALY": 18.3839, "EPHEMERIS_TYPE": 0, "CLASSIFICATION_TYPE": "U", "NORAD_CAT_ID": 35759, "ELEMENT_SET_NO": 999, "REV_AT_EPOCH": 66086, "BSTAR": 0.0005052276, "MEAN_MOTION_DOT": 2.787e-05, "MEAN_MOTION_DDOT": 0}, "tle": {"line1": "1 35759U 93036ARD 25343.36981670  .00002787  00000+0  50523-3 0  9998", "line2": "2 35759  74.0373 222.5271 0076919 341.4527  18.3839 14.64874402660862"}}, "geometry": {"type": "Point", "coordinates": [-145.04498928583513, -19.264637737104398]}}, {"type": "Feature", "properties": {"norad_id": 35771, "name": "COSMOS 2251 DEB", "group": "cosmos-2251-debris", "lat": 69.8358300347157, "lon": 5.2377741235495625, "alt_km": 1008.1055340226158, "timestamp": "2025-12-10T07:43:55.175844+00:00", "meta": {"OBJECT_NAME": "COSMOS 2251 DEB", "OBJECT_ID": "1993-036ARR", "EPOCH": "2025-12-01T22:51:30.244896", "MEAN_MOTION": 14.12926683, "ECCENTRICITY": 0.02319351, "INCLINATION": 74.1552, "RA_OF_ASC_NODE": 329.2812, "ARG_OF_PERICENTER": 270.0606, "MEAN_ANOMALY": 87.396, "EPHEMERIS_TYPE": 0, "CLASSIFICATION_TYPE": "U", "NORAD_CAT_ID": 35771, "ELEMENT_SET_NO": 999, "REV_AT_EPOCH": 82708, "BSTAR": 0.0067662276, "MEAN_MOTION_DOT": 0.00016281, "MEAN_MOTION_DDOT": 0}, "tle": {"line1": "1 35771U 93036ARR 25335.95243339  .00016281  00000+0  67662-2 0  9996", "line2": "2 35771  74.1552 329.2812 0231935 270.0606  87.3960 14.12926683827080"}}, "geometry": {"type": "Point", "coordinates": [5.2377741235495625, 69.8358300347157]}}, {"type": "Feature", "properties": {"norad_id": 35773, "name": "COSMOS 2251 DEB", "group": "cosmos-2251-debris", "lat": -64.11620339759597, "lon": -158.31040005375309, "alt_km": 700.5797729025271, "timestamp": "2025-12-10T07:43:55.175854+00:00", "meta": {"OBJECT_NAME": "COSMOS 2251 DEB", "OBJECT_ID": "1993-036ART", "EPOCH": "2025-12-08T10:15:31.691232", "MEAN_MOTION": 14.62032242, "ECCENTRICITY": 0.00457513, "INCLINATION": 74.0078, "RA_OF_ASC_NODE": 349.0907, "ARG_OF_PERICENTER": 150.3799, "MEAN_ANOMALY": 209.9974, "EPHEMERIS_TYPE": 0, "CLASSIFICATION_TYPE": "U", "NORAD_CAT_ID": 35773, "ELEMENT_SET_NO": 999, "REV_AT_EPOCH": 86776, "BSTAR": 0.00087342579, "MEAN_MOTION_DOT": 4.42e-05, "MEAN_MOTION_DDOT": 0}, "tle": {"line1": "1 35773U 93036ART 25342.42745013  .00004420  00000+0  87343-3 0  9995", "line2": "2 35773  74.0078 349.0907 0045751 150.3799 209.9974 14.62032242867761"}}, "geometry": {"type": "Point", "coordinates": [-158.31040005375309, -64.11620339759597]}}, {"type": "Feature", "properties": {"norad_id": 35777, "name": "COSMOS 2251 DEB", "group": "cosmos-2251-debris", "lat": 22.32121697842725, "lon": -26.527491782843708, "alt_km": 1423.4344409092491, "timestamp": "2025-12-10T07:43:55.175864+00:00", "meta": {"OBJECT_NAME": "COSMOS 2251 DEB", "OBJECT_ID": "1993-036ARX", "EPOCH": "2025-12-08T17:08:57.000768", "MEAN_MOTION": 13.41299794, "ECCENTRICITY": 0.04525672, "INCLINATION": 73.7701, "RA_OF_ASC_NODE": 329.172, "ARG_OF_PERICENTER": 224.5904, "MEAN_ANOMALY": 317.2432, "EPHEMERIS_TYPE": 0, "CLASSIFICATION_TYPE": "U", "NORAD_CAT_ID": 35777, "ELEMENT_SET_NO": 999, "REV_AT_EPOCH": 79630, "BSTAR": 0.0009131429, "MEAN_MOTION_DOT": 9.04e-06, "MEAN_MOTION_DDOT": 0}, "tle": {"line1": "1 35777U 93036ARX 25342.71454862  .00000904  00000+0  91314-3 0  9996", "line2": "2 35777  73.7701 329.1720 0452567 224.5904 317.2432 13.41299794796301"}}, "geometry": {"type": "Point", "coordinates": [-26.527491782843708, 22.32121697842725]}}, {"type": "Feature", "properties": {"norad_id": 35784, "name": "COSMOS 2251 DEB", "group": "cosmos-2251-debris", "lat": 8.93154419055737, "lon": 96.82372942016052, "alt_km": 751.0065269768293, "timestamp": "2025-12-10T07:43:55.175874+00:00", "meta": {"OBJECT_NAME": "COSMOS 2251 DEB", "OBJECT_ID": "1993-036ASE", "EPOCH": "2025-12-08T14:17:36.853152", "MEAN_MOTION": 14.50025184, "ECCENTRICITY": 0.0042468, "INCLINATION": 74.0364, "RA_OF_ASC_NODE": 97.4864, "ARG_OF_PERICENTER": 229.9837, "MEAN_ANOMALY": 129.7594, "EPHEMERIS_TYPE": 0, "CLASSIFICATION_TYPE": "U", "NORAD_CAT_ID": 35784, "ELEMENT_SET_NO": 999, "REV_AT_EPOCH": 65646, "BSTAR": 0.00067524, "MEAN_MOTION_DOT": 2.619e-05, "MEAN_MOTION_DDOT": 0}, "tle": {"line1": "1 35784U 93036ASE 25342.59556543  .00002619  00000+0  67524-3 0  9990", "line2": "2 35784  74.0364  97.4864 0042468 229.9837 129.7594 14.50025184656469"}}, "geometry": {"type": "Point", "coordinates": [96.82372942016052, 8.93154419055737]}}, {"type": "Feature", "properties": {"norad_id": 35786, "name": "COSMOS 2251 DEB", "group": "cosmos-2251-debris", "lat": 31.689555958498445, "lon": -141.75824670924356, "alt_km": 650.6058572257443, "timestamp": "2025-12-10T07:43:55.175884+00:00", "meta": {"OBJECT_NAME": "COSMOS 2251 DEB", "OBJECT_ID": "1993-036ASG", "EPOCH": "2025-12-09T11:24:46.077120", "MEAN_MOTION": 14.66167214, "ECCENTRICITY": 0.00343345, "INCLINATION": 74.0142, "RA_OF_ASC_NODE": 50.0685, "ARG_OF_PERICENTER": 180.7191, "MEAN_ANOMALY": 179.3935, "EPHEMERIS_TYPE": 0, "CLASSIFICATION_TYPE": "U", "NORAD_CAT_ID": 35786, "ELEMENT_SET_NO": 999, "REV_AT_EPOCH": 73360, "BSTAR": 0.0015474252, "MEAN_MOTION_DOT": 8.565e-05, "MEAN_MOTION_DDOT": 0}, "tle": {"line1": "1 35786U 93036ASG 25343.47553330  .00008565  00000+0  15474-2 0  9993", "line2": "2 35786  74.0142  50.0685 0034334 180.7191 179.3935 14.66167214733601"}}, "geometry": {"type": "Point", "coordinates": [-141.75824670924356, 31.689555958498445]}}, {"type": "Feature", "properties": {"norad_id": 35789, "name": "COSMOS 2251 DEB", "group": "cosmos-2251-debris", "lat": 69.35009209082153, "lon": 59.39638234625708, "alt_km": 755.4783363289735, "timestamp": "2025-12-10T07:43:55.175894+00:00", "meta": {"OBJECT_NAME": "COSMOS 2251 DEB", "OBJECT_ID": "1993-036ASK", "EPOCH": "2025-12-09T14:32:12.086016", "MEAN_MOTION": 14.35981929, "ECCENTRICITY": 0.0047207, "INCLINATION": 74.039, "RA_OF_ASC_NODE": 290.122, "ARG_OF_PERICENTER": 30.3577, "MEAN_ANOMALY": 330.0294, "EPHEMERIS_TYPE": 0, "CLASSIFICATION_TYPE": "U", "NORAD_CAT_ID": 35789, "ELEMENT_SET_NO": 999, "REV_AT_EPOCH": 61182, "BSTAR": 0.0002497, "MEAN_MOTION_DOT": 7.08e-06, "MEAN_MOTION_DDOT": 0}, "tle": {"line1": "1 35789U 93036ASK 25343.60569544  .00000708  00000+0  24970-3 0  9998", "line2": "2 35789  74.0390 290.1220 0047207  30.3577 330.0294 14.35981929611828"}}, "geometry": {"type": "Point", "coordinates": [59.39638234625708, 69.35009209082153]}}, {"type": "Feature", "properties": {"norad_id": 35793, "name": "COSMOS 2251 DEB", "group": "cosmos-2251-debris", "lat": 33.868820929262775, "lon": -126.13709981357431, "alt_km": 629.3409024036355, "timestamp": "2025-12-10T07:43:55.175904+00:00", "meta": {"OBJECT_NAME": "COSMOS 2251 DEB", "OBJECT_ID": "1993-036ASP", "EPOCH": "2025-12-07T22:47:04.053408", "MEAN_MOTION": 14.78488646, "ECCENTRICITY": 0.00029281, "INCLINATION": 74.0407, "RA_OF_ASC_NODE": 69.5961, "ARG_OF_PERICENTER": 139.1114, "MEAN_ANOMALY": 340.8609, "EPHEMERIS_TYPE": 0, "CLASSIFICATION_TYPE": "U", "NORAD_CAT_ID": 35793, "ELEMENT_SET_NO": 999, "REV_AT_EPOCH": 65726, "BSTAR": 0.0023244582, "MEAN_MOTION_DOT": 0.0001698, "MEAN_MOTION_DDOT": 0}, "tle": {"line1": "1 35793U 93036ASP 25341.94935247  .00016980  00000+0  23245-2 0  9997", "line2": "2 35793  74.0407  69.5961 0002928 139.1114 340.8609 14.78488646657260"}}, "geometry": {"type": "Point", "coordinates": [-126.13709981357431, 33.868820929262775]}}, {"type": "Feature", "properties": {"norad_id": 35824, "name": "COSMOS 2251 DEB", "group": "cosmos-2251-debris", "lat": -49.260196517659644, "lon": -107.38924763916722, "alt_km": 944.0601084332111, "timestamp": "2025-12-10T07:43:55.175914+00:00", "meta": {"OBJECT_NAME": "COSMOS 2251 DEB", "OBJECT_ID": "1993-036ASW", "EPOCH": "2025-12-08T11:24:31.157568", "MEAN_MOTION": 13.883958, "ECCENTRICITY": 0.02494458, "INCLINATION": 73.8458, "RA_OF_ASC_NODE": 56.1203, "ARG_OF_PERICENTER": 143.0234, "MEAN_ANOMALY": 218.8382, "EPHEMERIS_TYPE": 0, "CLASSIFICATION_TYPE": "U", "NORAD_CAT_ID": 35824, "ELEMENT_SET_NO": 999, "REV_AT_EPOCH": 84168, "BSTAR": 0.0020429183, "MEAN_MOTION_DOT": 3.116e-05, "MEAN_MOTION_DDOT": 0}, "tle": {"line1": "1 35824U 93036ASW 25342.47536062  .00003116  00000+0  20429-2 0  9991", "line2": "2 35824  73.8458  56.1203 0249445 143.0234 218.8382 13.88395800841685"}}, "geometry": {"type": "Point", "coordinates": [-107.38924763916722, -49.260196517659644]}}, {"type": "Feature", "properties": {"norad_id": 35825, "name": "COSMOS 2251 DEB", "group": "cosmos-2251-debris", "lat": 35.82400965381288, "lon": 158.47697532098604, "alt_km": 1226.8236135788848, "timestamp": "2025-12-10T07:43:55.175924+00:00", "meta": {"OBJECT_NAME": "COSMOS 2251 DEB", "OBJECT_ID": "1993-036ASX", "EPOCH": "2025-12-06T17:43:31.257408", "MEAN_MOTION": 13.70908059, "ECCENTRICITY": 0.03529553, "INCLINATION": 74.1125, "RA_OF_ASC_NODE": 152.5025, "ARG_OF_PERICENTER": 249.6557, "MEAN_ANOMALY": 106.6316, "EPHEMERIS_TYPE": 0, "CLASSIFICATION_TYPE": "U", "NORAD_CAT_ID": 35825, "ELEMENT_SET_NO": 999, "REV_AT_EPOCH": 82426, "BSTAR": 0.0026115912, "MEAN_MOTION_DOT": 3.599e-05, "MEAN_MOTION_DDOT": 0}, "tle": {"line1": "1 35825U 93036ASX 25340.73855622  .00003599  00000+0  26116-2 0  9999", "line2": "2 35825  74.1125 152.5025 0352955 249.6557 106.6316 13.70908059824269"}}, "geometry": {"type": "Point", "coordinates": [158.47697532098604, 35.82400965381288]}}]}